{
  "type": "FeatureCollection",
  "features": [
    {
      "type": "Feature",
      "properties": {
        "norad_id": 36283,
        "name": "FENGYUN 1C DEB",
        "group": "fengyun-1c-debris",
        "lat": -21.357911504818652,
        "lon": -30.945154636286276,
        "alt_km": 514.404526049505,
        "timestamp": "2025-12-23T18:59:32.254733+00:00",
        "meta_object_name": "FENGYUN 1C DEB",
        "meta_object_id": "1999-025DXL",
        "meta_epoch": "2025-12-23T04:44:38.793408",
        "meta_mean_motion": 15.06831153,
        "meta_eccentricity": 0.00662704,
        "meta_inclination": 99.4219,
        "meta_ra_of_asc_node": 324.6063,
        "meta_arg_of_pericenter": 17.5216,
        "meta_mean_anomaly": 342.827,
        "meta_ephemeris_type": 0,
        "meta_classification_type": "U",
        "meta_norad_cat_id": 36283,
        "meta_element_set_no": 999,
        "meta_rev_at_epoch": 66823,
        "meta_bstar": 0.0020918935,
        "meta_mean_motion_dot": 0.00032823,
        "meta_mean_motion_ddot": 0,
        "tle_line1": "1 36283U 99025DXL 25357.19767122  .00032823  00000+0  20919-2 0  9994",
        "tle_line2": "2 36283  99.4219 324.6063 0066270  17.5216 342.8270 15.06831153668239"
      },
      "geometry": {
        "type": "Point",
        "coordinates": [
          -30.945154636286276,
          -21.357911504818652
        ]
      }
    },
    {
      "type": "Feature",
      "properties": {
        "norad_id": 36644,
        "name": "FENGYUN 1C DEB",
        "group": "fengyun-1c-debris",
        "lat": -62.102199620271044,
        "lon": -61.39361733761654,
        "alt_km": 1048.3183164442617,
        "timestamp": "2025-12-23T18:59:32.254742+00:00",
        "meta_object_name": "FENGYUN 1C DEB",
        "meta_object_id": "1999-025DXN",
        "meta_epoch": "2025-12-20T03:15:14.582880",
        "meta_mean_motion": 13.5921712,
        "meta_eccentricity": 0.0285778,
        "meta_inclination": 98.4233,
        "meta_ra_of_asc_node": 131.7114,
        "meta_arg_of_pericenter": 160.4918,
        "meta_mean_anomaly": 200.7431,
        "meta_ephemeris_type": 0,
        "meta_classification_type": "U",
        "meta_norad_cat_id": 36644,
        "meta_element_set_no": 999,
        "meta_rev_at_epoch": 61668,
        "meta_bstar": 0.0010197403,
        "meta_mean_motion_dot": 9.49e-06,
        "meta_mean_motion_ddot": 0,
        "tle_line1": "1 36644U 99025DXN 25354.13558545  .00000949  00000+0  10197-2 0  9994",
        "tle_line2": "2 36644  98.4233 131.7114 0285778 160.4918 200.7431 13.59217120616683"
      },
      "geometry": {
        "type": "Point",
        "coordinates": [
          -61.39361733761654,
          -62.102199620271044
        ]
      }
    },
    {
      "type": "Feature",
      "properties": {
        "norad_id": 36647,
        "name": "FENGYUN 1C DEB",
        "group": "fengyun-1c-debris",
        "lat": 46.98497375001774,
        "lon": -38.69036161306397,
        "alt_km": 1050.4169512185226,
        "timestamp": "2025-12-23T18:59:32.254751+00:00",
        "meta_object_name": "FENGYUN 1C DEB",
        "meta_object_id": "1999-025DXR",
        "meta_epoch": "2025-12-17T15:22:01.202880",
        "meta_mean_motion": 13.88856712,
        "meta_eccentricity": 0.02401846,
        "meta_inclination": 96.1202,
        "meta_ra_of_asc_node": 130.6548,
        "meta_arg_of_pericenter": 285.5466,
        "meta_mean_anomaly": 71.9303,
        "meta_ephemeris_type": 0,
        "meta_classification_type": "U",
        "meta_norad_cat_id": 36647,
        "meta_element_set_no": 999,
        "meta_rev_at_epoch": 30480,
        "meta_bstar": 0.0022455743,
        "meta_mean_motion_dot": 3.394e-05,
        "meta_mean_motion_ddot": 0,
        "tle_line1": "1 36647U 99025DXR 25351.64029170  .00003394  00000+0  22456-2 0  9995",
        "tle_line2": "2 36647  96.1202 130.6548 0240184 285.5466  71.9303 13.88856712304807"
      },
      "geometry": {
        "type": "Point",
        "coordinates": [
          -38.69036161306397,
          46.98497375001774
        ]
      }
    },
    {
      "type": "Feature",
      "properties": {
        "norad_id": 36652,
        "name": "FENGYUN 1C DEB",
        "group": "fengyun-1c-debris",
        "lat": -38.31687106769111,
        "lon": -107.01767138433208,
        "alt_km": 829.0662132399248,
        "timestamp": "2025-12-23T18:59:32.254760+00:00",
        "meta_object_name": "FENGYUN 1C DEB",
        "meta_object_id": "1999-025DXW",
        "meta_epoch": "2025-12-23T04:27:41.800608",
        "meta_mean_motion": 14.22886702,
        "meta_eccentricity": 0.00508764,
        "meta_inclination": 98.9404,
        "meta_ra_of_asc_node": 79.5139,
        "meta_arg_of_pericenter": 321.9876,
        "meta_mean_anomaly": 37.7715,
        "meta_ephemeris_type": 0,
        "meta_classification_type": "U",
        "meta_norad_cat_id": 36652,
        "meta_element_set_no": 999,
        "meta_rev_at_epoch": 64473,
        "meta_bstar": 0.0016833482,
        "meta_mean_motion_dot": 3.789e-05,
        "meta_mean_motion_ddot": 0,
        "tle_line1": "1 36652U 99025DXW 25357.18590047  .00003789  00000+0  16833-2 0  9992",
        "tle_line2": "2 36652  98.9404  79.5139 0050876 321.9876  37.7715 14.22886702644738"
      },
      "geometry": {
        "type": "Point",
        "coordinates": [
          -107.01767138433208,
          -38.31687106769111
        ]
      }
    },
    {
      "type": "Feature",
      "properties": {
        "norad_id": 36657,
        "name": "FENGYUN 1C DEB",
        "group": "fengyun-1c-debris",
        "lat": -61.54872345416382,
        "lon": 168.1316403935552,
        "alt_km": 690.0504659842345,
        "timestamp": "2025-12-23T18:59:32.254768+00:00",
        "meta_object_name": "FENGYUN 1C DEB",
        "meta_object_id": "1999-025DYB",
        "meta_epoch": "2025-12-21T16:29:00.575808",
        "meta_mean_motion": 14.65578077,
        "meta_eccentricity": 0.01055392,
        "meta_inclination": 99.4132,
        "meta_ra_of_asc_node": 147.8952,
        "meta_arg_of_pericenter": 39.9824,
        "meta_mean_anomaly": 320.9086,
        "meta_ephemeris_type": 0,
        "meta_classification_type": "U",
        "meta_norad_cat_id": 36657,
        "meta_element_set_no": 999,
        "meta_rev_at_epoch": 66387,
        "meta_bstar": 0.0004246714,
        "meta_mean_motion_dot": 2.435e-05,
        "meta_mean_motion_ddot": 0,
        "tle_line1": "1 36657U 99025DYB 25355.68681222  .00002435  00000+0  42467-3 0  9996",
        "tle_line2": "2 36657  99.4132 147.8952 0105539  39.9824 320.9086 14.65578077663879"
      },
      "geometry": {
        "type": "Point",
        "coordinates": [
          168.1316403935552,
          -61.54872345416382
        ]
      }
    },
    {
      "type": "Feature",
      "properties": {
        "norad_id": 36659,
        "name": "FENGYUN 1C DEB",
        "group": "fengyun-1c-debris",
        "lat": 62.96432452945594,
        "lon": -18.042699340624193,
        "alt_km": 837.4263363165664,
        "timestamp": "2025-12-23T18:59:32.254777+00:00",
        "meta_object_name": "FENGYUN 1C DEB",
        "meta_object_id": "1999-025DYD",
        "meta_epoch": "2025-12-18T07:09:04.054176",
        "meta_mean_motion": 13.87384482,
        "meta_eccentricity": 0.01357919,
        "meta_inclination": 99.8541,
        "meta_ra_of_asc_node": 356.081,
        "meta_arg_of_pericenter": 60.2917,
        "meta_mean_anomaly": 301.1674,
        "meta_ephemeris_type": 0,
        "meta_classification_type": "U",
        "meta_norad_cat_id": 36659,
        "meta_element_set_no": 999,
        "meta_rev_at_epoch": 60502,
        "meta_bstar": 0.00061832075,
        "meta_mean_motion_dot": 7.35e-06,
        "meta_mean_motion_ddot": 0,
        "tle_line1": "1 36659U 99025DYD 25352.29796359  .00000735  00000+0  61832-3 0  9998",
        "tle_line2": "2 36659  99.8541 356.0810 0135791  60.2917 301.1674 13.87384482605024"
      },
      "geometry": {
        "type": "Point",
        "coordinates": [
          -18.042699340624193,
          62.96432452945594
        ]
      }
    },
    {
      "type": "Feature",
      "properties": {
        "norad_id": 36664,
        "name": "FENGYUN 1C DEB",
        "group": "fengyun-1c-debris",
        "lat": 52.57469923312378,
        "lon": -146.52988151992977,
        "alt_km": 760.3177137287366,
        "timestamp": "2025-12-23T18:59:32.254786+00:00",
        "meta_object_name": "FENGYUN 1C DEB",
        "meta_object_id": "1999-025DYJ",
        "meta_epoch": "2025-12-20T07:25:54.989472",
        "meta_mean_motion": 14.1795977,
        "meta_eccentricity": 0.01735704,
        "meta_inclination": 98.6034,
        "meta_ra_of_asc_node": 18.6846,
        "meta_arg_of_pericenter": 78.0372,
        "meta_mean_anomaly": 284.0202,
        "meta_ephemeris_type": 0,
        "meta_classification_type": "U",
        "meta_norad_cat_id": 36664,
        "meta_element_set_no": 999,
        "meta_rev_at_epoch": 63858,
        "meta_bstar": 7.0633235e-05,
        "meta_mean_motion_dot": 1.26e-06,
        "meta_mean_motion_ddot": 0,
        "tle_line1": "1 36664U 99025DYJ 25354.30966423  .00000126  00000+0  70633-4 0  9993",
        "tle_line2": "2 36664  98.6034  18.6846 0173570  78.0372 284.0202 14.17959770638588"
      },
      "geometry": {
        "type": "Point",
        "coordinates": [
          -146.52988151992977,
          52.57469923312378
        ]
      }
    }
  ]
}